{"dragon": {"capsule": null, "mass_returned_kg": null, "mass_returned_lbs": null, "flight_time_sec": null, "manifest": null, "water_landing": null, "land_landing": null}, "name": "Iridium NEXT 2", "type": "Satellite", "reused": false, "launch": "5eb87d05ffd86e000604b354", "customers": ["Iridium Communications"], "norad_ids": [42803, 42804, 42805, 42806, 42807, 42808, 42809, 42805, 42810, 42811], "nationalities": ["United States"], "manufacturers": ["Thales Alenia Space"], "mass_kg": 9600, "mass_lbs": 21164, "orbit": "PO", "reference_system": "geocentric", "regime": "low-earth", "longitude": null, "semi_major_axis_km": 7155.8, "eccentricity": 0.0001845, "periapsis_km": 776.345, "apoapsis_km": 778.986, "inclination_deg": 86.3959, "period_min": 100.403, "lifespan_years": 15, "epoch": "2022-01-29T14:06:23.000Z", "mean_motion": 14.34218908, "raan": 270.5287, "arg_of_pericenter": 94.5208, "mean_anomaly": 265.6198, "id": "5eb0e4c4b6c3bb0006eeb210"}